{
  "norad_id": 66878,
  "name": "STARLINK-35866",
  "history": [
    {
      "epoch": "2026-03-28T22:40:22.650240Z",
      "apogee_km": 476.02105493298495,
      "perigee_km": 474.4159990685612,
      "latitude_deg": -1.4442613541894627e-05,
      "longitude_deg": 128.17843198109568,
      "height_km": 476.24599154992524,
      "semi_major_axis_km": 6853.355527000773,
      "eccentricity": 0.0001171,
      "inclination_deg": 53.1594,
      "raan_deg": 294.6307,
      "arg_perigee_deg": 99.2716,
      "mean_anomaly_deg": 260.8417,
      "mean_motion_rev_day": 15.30198842
    }
  ]
}