{"fetched_at":"2026-03-30T06:02:59Z","count":15439,"tles":[{"name":"STARLINK-35866","line1":"1 66878U 25283A   26087.94470660  .00031768  00000+0  10802-2 0  9991","line2":"2 66878  53.1594 294.6307 0001171  99.2716 260.8417 15.30198842 18793","category":"Starlink"}]}